H1 CPF 01  gfz 2021 09 30 00  7731 tandemx   
H2 1003001  6202 36605    2021 09 30 00 59 42 2021 10 05 00 00 42   120 1 1  0 0 0
H9
10 0 59487  20142.000000  0    1247320.446   -746481.569  -6740388.335
10 0 59487  20262.000000  0     341306.545   -863134.795  -6832600.121
10 0 59487  20382.000000  0    -572386.067   -948921.726  -6805677.351
10 0 59487  20502.000000  0   -1477385.051  -1002365.387  -6660081.937
10 0 59487  20622.000000  0   -2357442.477  -1022829.681  -6398316.663
10 0 59487  20742.000000  0   -3196719.925  -1010525.581  -6024885.487
10 0 59487  20862.000000  0   -3980067.566   -966499.081  -5546225.141
10 0 59487  20982.000000  0   -4693297.843   -892600.759  -4970606.041
10 0 59487  21102.000000  0   -5323445.559   -791437.033  -4308000.494
10 0 59487  21222.000000  0   -5859010.285   -666304.561  -3569921.258
10 0 59487  21342.000000  0   -6290177.210   -521107.947  -2769230.440
10 0 59487  21462.000000  0   -6609009.243   -360262.221  -1919920.558
10 0 59487  21582.000000  0   -6809606.576   -188583.250  -1036872.311
10 0 59487  21702.000000  0   -6888229.253    -11166.531   -135590.376
10 0 59487  21822.000000  0   -6843374.293    166741.573    768075.555
10 0 59487  21942.000000  0   -6675810.178    339876.540   1658216.181
10 0 59487  22062.000000  0   -6388566.256    503088.983   2519151.882
10 0 59487  22182.000000  0   -5986875.769    651475.461   3335718.206
10 0 59487  22302.000000  0   -5478073.764    780503.450   4093540.600
10 0 59487  22422.000000  0   -4871453.827    886126.916   4779291.608
10 0 59487  22542.000000  0   -4178087.921    964889.638   5380926.222
10 0 59487  22662.000000  0   -3410614.833   1014014.143   5887891.128
10 0 59487  22782.000000  0   -2583001.509   1031474.288   6291306.528
10 0 59487  22902.000000  0   -1710281.706   1016050.145   6584117.144
10 0 59487  23022.000000  0    -808277.003    967364.655   6761209.049
10 0 59487  23142.000000  0     106691.761    885900.468   6819492.267
10 0 59487  23262.000000  0    1018099.174    772997.184   6757950.829
10 0 59487  23382.000000  0    1909512.428    630829.460   6577659.362
10 0 59487  23502.000000  0    2764886.440    462365.961   6281765.792
10 0 59487  23622.000000  0    3568853.237    271309.643   5875440.831
10 0 59487  23742.000000  0    4307000.884     62020.054   5365792.707
10 0 59487  23862.000000  0    4966136.257   -160580.866   4761748.704
10 0 59487  23982.000000  0    5534527.644   -391117.884   4073904.450
10 0 59487  24102.000000  0    6002122.941   -623884.149   3314342.636
10 0 59487  24222.000000  0    6360738.384   -852972.978   2496422.224
10 0 59487  24342.000000  0    6604211.400  -1072416.622   1634540.900
10 0 59487  24462.000000  0    6728513.240  -1276328.787    743877.465
10 0 59487  24582.000000  0    6731821.993  -1459048.079   -159881.513
10 0 59487  24702.000000  0    6614550.177  -1615278.153  -1060828.004
10 0 59487  24822.000000  0    6379325.879  -1740219.937  -1943121.183
10 0 59487  24942.000000  0    6030929.986  -1829693.721  -2791274.169
10 0 59487  25062.000000  0    5576190.227  -1880247.557  -3590430.924
10 0 59487  25182.000000  0    5023836.858  -1889249.428  -4326627.980
10 0 59487  25302.000000  0    4384324.320  -1854961.083  -4987036.765
10 0 59487  25422.000000  0    3669622.484  -1776592.865  -5560182.299
10 0 59487  25542.000000  0    2892983.017  -1654338.095  -6036133.496
10 0 59487  25662.000000  0    2068688.722  -1489386.135  -6406663.913
10 0 59487  25782.000000  0    1211789.161  -1283914.478  -6665383.925
10 0 59487  25902.000000  0     337826.526  -1041060.877  -6807839.885
10 0 59487  26022.000000  0    -537441.922   -764875.934  -6831582.328
10 0 59487  26142.000000  0   -1398321.333   -460256.639  -6736203.157
10 0 59487  26262.000000  0   -2229454.459   -132861.453  -6523342.015
10 0 59487  26382.000000  0   -3016089.215    210991.786  -6196660.029
10 0 59487  26502.000000  0   -3744334.902    564443.358  -5761784.044
10 0 59487  26622.000000  0   -4401406.752    920223.738  -5226220.352
10 0 59487  26742.000000  0   -4975852.699   1270797.447  -4599236.603
10 0 59487  26862.000000  0   -5457760.238   1608518.353  -3891713.819
10 0 59487  26982.000000  0   -5838936.618   1925792.259  -3115966.503
10 0 59487  27102.000000  0   -6113059.306   2215242.388  -2285535.446
10 0 59487  27222.000000  0   -6275792.985   2469875.303  -1414954.928
10 0 59487  27342.000000  0   -6324869.189   2683243.287   -519497.721
10 0 59487  27462.000000  0   -6260125.773   2849598.300    385097.647
10 0 59487  27582.000000  0   -6083503.128   2964033.473   1282911.432
10 0 59487  27702.000000  0   -5798997.516   3022608.959   2158131.628
10 0 59487  27822.000000  0   -5412572.581   3022457.755   2995341.393
10 0 59487  27942.000000  0   -4932032.515   2961869.555   3779798.444
10 0 59487  28062.000000  0   -4366858.330   2840349.392   4497700.861
10 0 59487  28182.000000  0   -3728013.116   2658650.781   5136431.783
10 0 59487  28302.000000  0   -3027722.322   2418783.339   5684780.588
10 0 59487  28422.000000  0   -2279232.365   2123994.563   6133137.633
10 0 59487  28542.000000  0   -1496553.339   1778725.528   6473657.728
10 0 59487  28662.000000  0    -694191.939   1388542.286   6700390.597
10 0 59487  28782.000000  0     113118.358    960044.250   6809377.760
10 0 59487  28902.000000  0     910687.237    500751.640   6798717.290
10 0 59487  29022.000000  0    1684133.811     18973.740   6668594.656
10 0 59487  29142.000000  0    2419644.725   -476340.594   6421280.216
10 0 59487  29262.000000  0    3104220.747   -975768.594   6061093.072
10 0 59487  29382.000000  0    3725908.850  -1469591.581   5594330.802
10 0 59487  29502.000000  0    4274014.981  -1947983.869   5029164.635
10 0 59487  29622.000000  0    4739292.672  -2401208.028   4375502.126
10 0 59487  29742.000000  0    5114106.594  -2819813.848   3644819.487
10 0 59487  29862.000000  0    5392566.534  -3194836.812   2849962.243
10 0 59487  29982.000000  0    5570626.186  -3517990.197   2004917.867
10 0 59487  30102.000000  0    5646145.326  -3781847.480   1124567.014
10 0 59487  30222.000000  0    5618914.605  -3980010.358    224415.286
10 0 59487  30342.000000  0    5490640.977  -4107256.684   -679687.403
10 0 59487  30462.000000  0    5264894.468  -4159665.991  -1571835.402
10 0 59487  30582.000000  0    4947017.008  -4134717.494  -2436355.810
10 0 59487  30702.000000  0    4543995.998  -4031359.637  -3258090.309
10 0 59487  30822.000000  0    4064307.011  -3850049.567  -4022664.763
10 0 59487  30942.000000  0    3517729.329  -3592761.633  -4716740.499
10 0 59487  31062.000000  0    2915140.295  -3262965.619  -5328243.229
10 0 59487  31182.000000  0    2268293.403  -2865575.749  -5846564.925
10 0 59487  31302.000000  0    1589586.731  -2406873.762  -6262736.996
10 0 59487  31422.000000  0     891824.955  -1894406.503  -6569576.193
10 0 59487  31542.000000  0     187978.488  -1336858.294  -6761798.143
10 0 59487  31662.000000  0    -509054.037   -743903.406  -6836097.903
10 0 59487  31782.000000  0   -1186676.294   -126040.665  -6791199.679
10 0 59487  31902.000000  0   -1832816.598    505588.089  -6627876.056
10 0 59487  32022.000000  0   -2436137.900   1139393.632  -6348935.589
10 0 59487  32142.000000  0   -2986232.320   1763546.534  -5959179.886
10 0 59487  32262.000000  0   -3473798.978   2366192.890  -5465330.490
10 0 59487  32382.000000  0   -3890803.531   2935676.927  -4875925.146
10 0 59487  32502.000000  0   -4230615.787   3460766.049  -4201181.030
10 0 59487  32622.000000  0   -4488120.546   3930873.462  -3452827.138
10 0 59487  32742.000000  0   -4659800.404   4336274.738  -2643909.318
10 0 59487  32862.000000  0   -4743789.366   4668312.831  -1788567.862
10 0 59487  32982.000000  0   -4739894.286   4919586.645   -901792.256
10 0 59487  33102.000000  0   -4649583.969   5084118.891       844.282
10 0 59487  33222.000000  0   -4475942.458   5157497.217    903464.922
10 0 59487  33342.000000  0   -4223591.269   5136984.940   1790176.620
10 0 59487  33462.000000  0   -3898578.608   5021597.313   2645360.741
10 0 59487  33582.000000  0   -3508239.265   4812141.536   3453956.561
10 0 59487  33702.000000  0   -3061030.218   4511220.869   4201732.311
10 0 59487  33822.000000  0   -2566346.777   4123203.024   4875539.596
10 0 59487  33942.000000  0   -2034322.478   3654152.717   5463545.983
10 0 59487  34062.000000  0   -1475618.417   3111730.451   5955440.994
10 0 59487  34182.000000  0    -901206.737   2505060.654   6342612.261
10 0 59487  34302.000000  0    -322154.017   1844572.175   6618289.145
10 0 59487  34422.000000  0     250591.181   1141816.141   6777655.390
10 0 59487  34542.000000  0     806405.220    409261.629   6817928.178
10 0 59487  34662.000000  0    1335185.421   -339925.132   6738403.085
10 0 59487  34782.000000  0    1827532.813  -1092116.663   6540466.639
10 0 59487  34902.000000  0    2274919.046  -1833471.554   6227573.693
10 0 59487  35022.000000  0    2669835.199  -2550188.918   5805192.029
10 0 59487  35142.000000  0    3005920.345  -3228766.796   5280712.092
10 0 59487  35262.000000  0    3278066.351  -3856259.245   4663323.356
10 0 59487  35382.000000  0    3482498.368  -4420527.729   3963859.032
10 0 59487  35502.000000  0    3616828.921  -4910482.354   3194609.088
10 0 59487  35622.000000  0    3680083.263  -5316306.162   2369105.031
10 0 59487  35742.000000  0    3672696.058  -5629658.137   1501879.742
10 0 59487  35862.000000  0    3596478.710  -5843849.180    608206.556
10 0 59487  35982.000000  0    3454558.174  -5953985.536   -296176.112
10 0 59487  36102.000000  0    3251290.156  -5957079.245  -1195350.172
10 0 59487  36222.000000  0    2992145.031  -5852118.398  -2073508.037
10 0 59487  36342.000000  0    2683572.773  -5640097.912  -2915237.323
10 0 59487  36462.000000  0    2332849.732  -5324009.892  -3705797.535
10 0 59487  36582.000000  0    1947910.402  -4908793.273  -4431380.740
99
